NOAA 10                 
1 16969U 86073A   02091.93047203  .00000741  00000-0  32356-3 0  2767
2 16969  98.7050  82.1971 0011648 309.7656  50.2497 14.26823289807890
